JAGSAT 1                
1 53771U 98067UJ  23021.18255652  .04584975  11861-4  20040-2 0  9996
2 53771  51.6196 319.4144 0007063 176.9180 183.1883 16.21690059 21450
ISS DEB                 
1 53772U 98067UK  23023.20114244  .00274462  00000+0  16781-2 0  9991
2 53772  51.6346 316.5117 0003773 109.8927 250.2479 15.75987886 21670
SOYUZ-MS 22             
1 53879U 22116A   23019.38502698  .00044714  00000+0  79094-3 0  9991
2 53879  51.6441 345.5952 0005080 248.4872 211.5591 15.49849381378707
CREW DRAGON 5           
1 53963U 22124A   23019.38502698  .00044714  00000+0  79094-3 0  9994
2 53963  51.6441 345.5952 0005080 248.4872 211.5591 15.49849381378701
PROGRESS-MS 21          
1 54155U 22140A   23019.38502698  .00044714  00000+0  79094-3 0  9996
2 54155  51.6441 345.5952 0005080 248.4872 211.5591 15.49849381378705
CSS (MENGTIAN)          
1 54216U 22143A   23019.28162384  .00019489  00000+0  23258-3 0  9992
2 54216  41.4763 343.6316 0004937 349.8525 153.2469 15.60568900 98546
CYGNUS NG-18            
1 54232U 22149A   23019.38502698  .00044714  00000+0  79094-3 0  9991
2 54232  51.6441 345.5952 0005080 248.4872 211.5591 15.49849381378701
TIANZHOU-5              
1 54237U 22152A   23019.28162384  .00019489  00000+0  23258-3 0  9995
2 54237  41.4763 343.6316 0004937 349.8525 153.2469 15.60568900 98549
SHENZHOU-15             
1 54379U 22162A   23019.28162384  .00019489  00000+0  23258-3 0  9993
2 54379  41.4763 343.6316 0004937 349.8525 153.2469 15.60568900 98546
1998-067UL              
1 54534U 98067UL  23022.23718825  .00094059  00000+0  13109-2 0  9998
2 54534  51.6418 330.3557 0001666 315.9369  44.1489 15.56140178  7969
1998-067UM              
1 54535U 98067UM  23023.39891497  .00109957  00000+0  14658-2 0  9998
2 54535  51.6420 324.4046 0000900 315.9557 143.6003 15.57264363  8141
1998-067UN              
1 54536U 98067UN  23023.41688723  .00082741  00000+0  11705-2 0  9999
2 54536  51.6451 324.5359 0002141 331.3131 121.6357 15.55793310  8104
1998-067UP              
1 54537U 98067UP  23023.40939876  .00093790  00000+0  12934-2 0  9998
2 54537  51.6428 324.4689 0001893 326.8874 134.6886 15.56425982  8143
XW-4 (CAS-10)           
1 54816U 21035C   23023.25252260  .00217896  00000+0  16920-2 0  9991
2 54816  41.4793 318.0732 0007173 171.8462 188.2499 15.70282006  5541
MARIO                   
1 55123U 98067UQ  23022.55880236  .00099819  00000+0  14941-2 0  9998
2 55123  51.6423 329.5049 0000752  26.9715 333.1314 15.54167923  3818
NUTSAT                  
1 55124U 98067UR  23022.55291500  .00142450  00000+0  20284-2 0  9996
2 55124  51.6415 329.4656 0000642 151.5500 208.5526 15.55344725  3805
LORIS                   
1 55125U 98067US  23022.88475981  .00076431  00000+0  11747-2 0  9999
2 55125  51.6419 327.9316 0001782 351.1164   8.9795 15.53560920  3878
ORCASAT                 
1 55126U 98067UT  23023.40204495  .00071254  00000+0  11074-2 0  9990
2 55126  51.6425 325.3862 0001878 349.7674  10.3278 15.53283355  3955
DANTESAT                
1 55127U 98067UU  23023.52930884  .00864554  00000+0  39205-2 0  9991
2 55127  51.6386 322.4776 0013072 172.9670 187.1517 15.81004531  3963
TJREVERB                
1 55128U 98067UV  23022.56754600  .00075277  00000+0  11733-2 0  9997
2 55128  51.6423 329.5623 0002741 315.0196  45.0572 15.53178429  3813
SPORT                   
1 55129U 98067UW  23022.57609570  .00043726  00000+0  71881-3 0  9999
2 55129  51.6429 329.6181 0001709 299.5091  60.5728 15.51934079  3817
PETITSAT                
1 55130U 98067UX  23022.56993004  .00124599  00000+0  18883-2 0  9998
2 55130  51.6425 329.5775 0001512 232.8184 127.2669 15.53713911  3769
1998-067UY              
1 55181U 98067UY  23022.89639686  .00090251  00000+0  14042-2 0  9993
2 55181  51.6427 328.0076 0003599 234.2157 125.8499 15.53143883  2576
HSKSAT                  
1 55182U 98067UZ  23022.38264663  .00067849  00000+0  10837-2 0  9992
2 55182  51.6423 330.5757 0003132 221.6936 138.3816 15.52544177  2500
1998-067VA              
1 55183U 98067VA  23023.22077436  .00054059  00000+0  87195-3 0  9998
2 55183  51.6424 326.4245 0004255 332.2021  27.8741 15.52364628  2633
